[{"OBJECT_NAME":"COSMOS 2361","OBJECT_ID":"1998-076A","EPOCH":"2026-03-07T03:20:59.354304","MEAN_MOTION":13.73227176,"ECCENTRICITY":0.0032196,"INCLINATION":82.9308,"RA_OF_ASC_NODE":281.6766,"ARG_OF_PERICENTER":33.0253,"MEAN_ANOMALY":81.9797,"EPHEMERIS_TYPE":0,"CLASSIFICATION_TYPE":"U","NORAD_CAT_ID":25590,"ELEMENT_SET_NO":999,"REV_AT_EPOCH":36269,"BSTAR":4.9799e-5,"MEAN_MOTION_DOT":6.1e-7,"MEAN_MOTION_DDOT":0},{"OBJECT_NAME":"COSMOS 2378","OBJECT_ID":"2001-023A","EPOCH":"2026-03-07T03:25:01.138656","MEAN_MOTION":13.74150802,"ECCENTRICITY":0.0032457,"INCLINATION":82.9255,"RA_OF_ASC_NODE":297.1569,"ARG_OF_PERICENTER":334.223,"MEAN_ANOMALY":147.6101,"EPHEMERIS_TYPE":0,"CLASSIFICATION_TYPE":"U","NORAD_CAT_ID":26818,"ELEMENT_SET_NO":999,"REV_AT_EPOCH":24082,"BSTAR":5.1874e-5,"MEAN_MOTION_DOT":6.4e-7,"MEAN_MOTION_DDOT":0},{"OBJECT_NAME":"COSMOS 2389","OBJECT_ID":"2002-026A","EPOCH":"2026-03-06T23:07:01.172928","MEAN_MOTION":13.75164129,"ECCENTRICITY":0.0046277,"INCLINATION":82.9467,"RA_OF_ASC_NODE":244.6337,"ARG_OF_PERICENTER":183.3749,"MEAN_ANOMALY":286.3091,"EPHEMERIS_TYPE":0,"CLASSIFICATION_TYPE":"U","NORAD_CAT_ID":27436,"ELEMENT_SET_NO":999,"REV_AT_EPOCH":19306,"BSTAR":4.3246e-5,"MEAN_MOTION_DOT":5.7e-7,"MEAN_MOTION_DDOT":0},{"OBJECT_NAME":"COSMOS 2398","OBJECT_ID":"2003-023A","EPOCH":"2026-03-06T22:11:31.022304","MEAN_MOTION":13.72395013,"ECCENTRICITY":0.0030345,"INCLINATION":82.9488,"RA_OF_ASC_NODE":210.6552,"ARG_OF_PERICENTER":237.6747,"MEAN_ANOMALY":235.8978,"EPHEMERIS_TYPE":0,"CLASSIFICATION_TYPE":"U","NORAD_CAT_ID":27818,"ELEMENT_SET_NO":999,"REV_AT_EPOCH":13971,"BSTAR":4.8566e-5,"MEAN_MOTION_DOT":5.9e-7,"MEAN_MOTION_DDOT":0},{"OBJECT_NAME":"COSMOS 2407","OBJECT_ID":"2004-028A","EPOCH":"2026-03-07T05:01:50.882016","MEAN_MOTION":13.7632472,"ECCENTRICITY":0.0039507,"INCLINATION":82.9636,"RA_OF_ASC_NODE":150.3617,"ARG_OF_PERICENTER":175.6427,"MEAN_ANOMALY":213.671,"EPHEMERIS_TYPE":0,"CLASSIFICATION_TYPE":"U","NORAD_CAT_ID":28380,"ELEMENT_SET_NO":999,"REV_AT_EPOCH":8585,"BSTAR":7.3314e-5,"MEAN_MOTION_DOT":8.7e-7,"MEAN_MOTION_DDOT":0},{"OBJECT_NAME":"COSMOS 2414","OBJECT_ID":"2005-002A","EPOCH":"2026-03-07T04:00:29.160288","MEAN_MOTION":13.87915167,"ECCENTRICITY":0.0038684,"INCLINATION":82.9485,"RA_OF_ASC_NODE":120.8266,"ARG_OF_PERICENTER":259.8206,"MEAN_ANOMALY":99.8593,"EPHEMERIS_TYPE":0,"CLASSIFICATION_TYPE":"U","NORAD_CAT_ID":28521,"ELEMENT_SET_NO":999,"REV_AT_EPOCH":6966,"BSTAR":7.1598e-5,"MEAN_MOTION_DOT":1.01e-6,"MEAN_MOTION_DDOT":0},{"OBJECT_NAME":"COSMOS 2429","OBJECT_ID":"2007-038A","EPOCH":"2026-03-07T01:11:12.892992","MEAN_MOTION":13.75157931,"ECCENTRICITY":0.0038793,"INCLINATION":82.9771,"RA_OF_ASC_NODE":281.1684,"ARG_OF_PERICENTER":158.8967,"MEAN_ANOMALY":201.3801,"EPHEMERIS_TYPE":0,"CLASSIFICATION_TYPE":"U","NORAD_CAT_ID":32052,"ELEMENT_SET_NO":999,"REV_AT_EPOCH":92761,"BSTAR":4.6064e-5,"MEAN_MOTION_DOT":6.0e-7,"MEAN_MOTION_DDOT":0},{"OBJECT_NAME":"COSMOS 2454","OBJECT_ID":"2009-039A","EPOCH":"2026-03-07T04:36:25.748352","MEAN_MOTION":13.89940937,"ECCENTRICITY":0.0019028,"INCLINATION":82.953,"RA_OF_ASC_NODE":104.6271,"ARG_OF_PERICENTER":186.6422,"MEAN_ANOMALY":243.0186,"EPHEMERIS_TYPE":0,"CLASSIFICATION_TYPE":"U","NORAD_CAT_ID":35635,"ELEMENT_SET_NO":999,"REV_AT_EPOCH":84323,"BSTAR":5.0643e-5,"MEAN_MOTION_DOT":7.8e-7,"MEAN_MOTION_DDOT":0},{"OBJECT_NAME":"COSMOS 2463","OBJECT_ID":"2010-017A","EPOCH":"2026-03-07T03:35:24.540576","MEAN_MOTION":13.7165771,"ECCENTRICITY":0.0037284,"INCLINATION":82.9634,"RA_OF_ASC_NODE":324.6972,"ARG_OF_PERICENTER":54.3755,"MEAN_ANOMALY":55.5921,"EPHEMERIS_TYPE":0,"CLASSIFICATION_TYPE":"U","NORAD_CAT_ID":36519,"ELEMENT_SET_NO":999,"REV_AT_EPOCH":79394,"BSTAR":6.8158e-5,"MEAN_MOTION_DOT":7.7e-7,"MEAN_MOTION_DDOT":0}]
