COSMOS 2361             
1 25590U 98076A   26066.13957586  .00000061  00000+0  49799-4 0  9993
2 25590  82.9308 281.6766 0032196  33.0253  81.9797 13.73227176362692
COSMOS 2378             
1 26818U 01023A   26066.14237429  .00000064  00000+0  51874-4 0  9991
2 26818  82.9255 297.1569 0032457 334.2230 147.6101 13.74150802240822
COSMOS 2389             
1 27436U 02026A   26065.96320802  .00000057  00000+0  43246-4 0  9995
2 27436  82.9467 244.6337 0046277 183.3749 286.3091 13.75164129193067
COSMOS 2398             
1 27818U 03023A   26065.92466461  .00000059  00000+0  48566-4 0  9997
2 27818  82.9488 210.6552 0030345 237.6747 235.8978 13.72395013139716
COSMOS 2407             
1 28380U 04028A   26066.20961669  .00000087  00000+0  73314-4 0  9990
2 28380  82.9636 150.3617 0039507 175.6427 213.6710 13.76324720 85857
COSMOS 2414             
1 28521U 05002A   26066.16700417  .00000101  00000+0  71598-4 0  9996
2 28521  82.9485 120.8266 0038684 259.8206  99.8593 13.87915167 69660
COSMOS 2429             
1 32052U 07038A   26066.04945478  .00000060  00000+0  46064-4 0  9990
2 32052  82.9771 281.1684 0038793 158.8967 201.3801 13.75157931927614
COSMOS 2454             
1 35635U 09039A   26066.19196468  .00000078  00000+0  50643-4 0  9993
2 35635  82.9530 104.6271 0019028 186.6422 243.0186 13.89940937843238
COSMOS 2463             
1 36519U 10017A   26066.14958959  .00000077  00000+0  68158-4 0  9998
2 36519  82.9634 324.6972 0037284  54.3755  55.5921 13.71657710793941
